STARLINK-30532          
1 58070U 23158V   26068.25529094  .00003865  00000+0  15373-3 0  9990
2 58070  43.0022  29.4830 0000765 276.0895  83.9869 15.26732748133504
FLOCK 4G-2              
1 62661U 25009BE  26068.66207492  .00013752  00000+0  51068-3 0  9995
2 62661  97.4044 151.2221 0003181 329.2677  30.8376 15.27675260121321
